1 48672C 21044AL  23134.14145833  .00036103  00000+0  24177-2 0  1346
2 48672  53.0546  57.9269 0001380  83.4801  25.3027 15.06382687    12
STARLINK-2711           
1 48673C 21044AM  23134.13312500  .00033274  00000+0  22283-2 0  1345
2 48673  53.0547  57.9683 0001317  90.1635 353.4272 15.06383698    14
STARLINK-2712           
1 48674C 21044AN  23134.13104167  .00033768  00000+0  22618-2 0  1344
2 48674  53.0539  57.9631 0001232  95.3755   2.0645 15.06377313    13
STARLINK-2737           
1 48675C 21044AP  23134.12548611  .00042428  00000+0  28410-2 0  1349
2 48675  53.0537  57.9977 0001535  86.7543 355.3852 15.06379251    17
STARLINK-2746           
1 48676C 21044AQ  23134.12270833  .00034012  00000+0  22784-2 0  1346
2 48676  53.0543  58.0130 0001183 100.3768 346.7253 15.06372815    17
STARLINK-2719           
1 48677C 21044AR  23134.10395833  .00032622  00000+0  21866-2 0  1348
2 48677  53.0533  58.0856 0001236  98.5895 271.9857 15.06350695    11
STARLINK-2615           
1 48678C 21044AS  23134.14840278  .00032899  00000+0  22042-2 0  1344
2 48678  53.0544  57.8937 0001142  93.2315 173.2828 15.06367128    17
STARLINK-2648           
1 48679C 21044AT  23134.14562500  .00033025  00000+0  22118-2 0  1340
2 48679  53.0540  57.9079 0001408  92.9356 178.4769 15.06381175    17
STARLINK-2649           
1 48680C 21044AU  23134.15118056  .00033417  00000+0  22388-2 0  1340
2 48680  53.0546  57.8846 0001217  88.2731 233.3170 15.06367791    14
STARLINK-2725           
1 48681C 21044AV  23134.14770833  .00036389  00000+0  24374-2 0  1345
2 48681  53.0550  28.1398 0001175  96.8278 210.7391 15.06372989    16
STARLINK-2743           
1 48682C 21044AW  23134.15048611  .00036271  00000+0  24281-2 0  1346
2 48682  53.0548  18.0526 0001037  65.1492 272.5376 15.06394678    17
STARLINK-2756           
1 48683C 21044AX  23134.13381944  .00036466  00000+0  24417-2 0  1341
2 48683  53.0552  17.9727 0001004  93.1357  34.2426 15.06385765    15
STARLINK-2741           
1 48684C 21044AY  23134.15534722  .00038733  00000+0  25934-2 0  1342
2 48684  53.0550  33.2227 0001445  95.8422  25.5643 15.06385923    11
STARLINK-2751           
1 48685C 21044AZ  23134.14215278  .00036748  00000+0  24596-2 0  1341
2 48685  53.0556  17.9729 0001491  76.5861 255.9542 15.06399534    18
STARLINK-2629           
1 48686C 21044BA  23134.15048611  .00037189  00000+0  24914-2 0  1342
2 48686  53.0541  23.1668 0001240 110.8066 299.3066 15.06366331    17
STARLINK-2627           
1 48687C 21044BB  23134.13937500  .00036183  00000+0  24221-2 0  1349
2 48687  53.0547  12.9411 0000895 116.7670   8.2227 15.06396987    13
STARLINK-2742           
1 48688C 21044BC  23134.14631944  .00034307  00000+0  22973-2 0  1342
2 48688  53.0540  12.9058 0001236  87.1095  55.6204 15.06386934    18
STARLINK-2617           
1 48689C 21044BD  23134.15534722  .00036575  00000+0  24487-2 0  1341
2 48689  53.0541  17.8363 0001105  87.2769  76.8928 15.06390784    13
STARLINK-2740           
1 48690C 21044BE  23134.15395833  .00037977  00000+0  25431-2 0  1348
2 48690  53.0554  27.8725 0001216 102.6210  18.9932 15.06381513    10
STARLINK-2750           
1 48691C 21044BF  23134.13520833  .00037760  00000+0  25277-2 0  1345
2 48691  53.0552  22.9575 0001146  78.5048  88.9003 15.06394318    13
STARLINK-2752           
1 48692C 21044BG  23134.11715278  .00037537  00000+0  25135-2 0  1348
2 48692  53.0545  23.1621 0001058 102.6842  46.6755 15.06384345    18
STARLINK-2618           
1 48693C 21044BH  23134.12756944  .00037260  00000+0  24948-2 0  1349
2 48693  53.0550  27.9897 0001370  87.7292  75.8124 15.06386566    12
STARLINK-2748           
1 48694C 21044BJ  23134.15187500  .00039659  00000+0  26549-2 0  1342
2 48694  53.0554  32.8706 0001459 102.3526   5.6057 15.06390660    19
STARLINK-2616           
1 48695C 21044BK  23134.15326389  .00035593  00000+0  23839-2 0  1345
2 48695  53.0547  32.9238 0001098  91.2136 259.1155 15.06376927    10
STARLINK-2753           
1 48696C 21044BL  23134.13868056  .00036556  00000+0  24481-2 0  1340
2 48696  53.0550  37.9887 0001358  89.2624 234.4454 15.06381407    15
STARLINK-2715           
1 48697C 21044BM  23134.13381944  .00036056  00000+0  24145-2 0  1349
2 48697  53.0541  37.9716 0000859 107.8801  29.4904 15.06382992    18
STARLINK-3003           
1 48879C 21059A   23134.12548611 -.00008184  00000+0 -62501-3 0  1344
2 48879  97.5290 259.6301 0000238 153.1850 330.3312 15.02080220    18
STARLINK-3004           
1 48880C 21059B   23134.12409722 -.00000926  00000+0 -70736-4 0  1341
2 48880  97.5278 259.6230 0001328 232.2542 252.8974 15.02073343    15
STARLINK-3005           
1 48881C 21059C   23134.12479167 -.00002906  00000+0 -22191-3 0  1343
2 48881  97.5215 259.6493 0000884 227.0511 284.5997 15.02076161    10
STARLINK-3096           
1 49131C 21082B   23134.12409722  .00013751  00000+0  11523-2 0  1342
2 49131  70.0006 332.8692 0003314 272.9223 114.7962 14.98319560    11
STARLINK-3090           
1 49132C 21082C   23134.11159722  .00017435  00000+0  14610-2 0  1347
2 49132  70.0017  12.9081 0003071 270.6512 227.1707 14.98313947    17
STARLINK-3077           
1 49133C 21082D   23134.15187500  .00017950  00000+0  15039-2 0  1345
2 49133  70.0018  12.8106 0003297 270.0730 107.4181 14.98320447    11
STARLINK-3078           
1 49134C 21082E   23134.15048611  .00019404  00000+0  16259-2 0  1346
2 49134  70.0025  12.8156 0003312 270.6945 121.8076 14.98318019    12
STARLINK-3073           
1 49135C 21082F   23134.12340278  .00013943  00000+0  11683-2 0  1346
2 49135  70.0015 332.8613 0003256 272.4310 134.0382 14.98321563    12
STARLINK-3084           
1 49136C 21082G   23134.15395833  .00016451  00000+0  13777-2 0  1340
2 49136  70.0012 352.8000 0003705 267.6263 324.7865 14.98339017    11
STARLINK-3055           
1 49137C 21082H   23134.15256944  .00016415  00000+0  13754-2 0  1345
2 49137  70.0020 352.8048 0003272 270.2310 337.2568 14.98320422    14
STARLINK-3058           
1 49138C 21082J   23134.15048611  .00017936  00000+0  15032-2 0  1346
2 49138  70.0023  12.8193 0003233 266.9880 148.0407 14.98310150    10
STARLINK-3057           
1 49139C 21082K   23134.12895833  .00012141  00000+0  10174-2 0  1345
2 49139  70.0014 332.8540 0003211 269.9460 211.4889 14.98321214    17
STARLINK-3118           
1 49140C 21082L   23134.14701389  .00013806  00000+0  11569-2 0  1349
2 49140  70.0011 332.8171 0003275 269.4331 354.3548 14.98321286    16
STARLINK-3093           
1 49141C 21082M   23134.14493056  .00018308  00000+0  15343-2 0  1345
2 49141  70.0025  12.8365 0003275 266.8780 140.6925 14.98310869    11
STARLINK-3042           
1 49142C 21082N   23134.14770833  .00014831  00000+0  12428-2 0  1345
2 49142  70.0016 332.8178 0003425 269.2142  20.8178 14.98317890    15
STARLINK-3109           
1 49143C 21082P   23134.13520833  .00017151  00000+0  14373-2 0  1347
2 49143  70.0012 352.8543 0003238 272.9343 263.4524 14.98315269    14
STARLINK-3100           
1 49144C 21082Q   23134.14909722  .00018550  00000+0  15544-2 0  1342
2 49144  70.0025  12.8048 0003415 269.5171 205.5054 14.98315764    15
STARLINK-3119           
1 49145C 21082R   23134.13659722  .00014564  00000+0  12206-2 0  1347
2 49145  70.0013 332.8312 0003181 269.3420  50.7887 14.98312698    14
STARLINK-3116           
1 49146C 21082S   23134.12895833  .00016708  00000+0  14000-2 0  1348
2 49146  70.0023 352.8706 0003180 271.2035 253.9653 14.98319101    12
STARLINK-3071           
1 49147C 21082T   23134.14770833  .00014836  00000+0  12432-2 0  1340
2 49147  70.0016 332.8214 0003344 271.3098  41.2237 14.98317769    13
STARLINK-3048           
1 49148C 21082U   23134.12618056  .00016929  00000+0  14181-2 0  1345
2 49148  70.0016 352.8587 0003420 267.7303 287.4270 14.98330377    13
STARLINK-3053           
1 49149C 21082V   23134.15465278  .00020075  00000+0  16822-2 0  1346
2 49149  70.0025  12.7947 0003204 269.1830 258.2933 14.98314073    14
STARLINK-3104           
1 49150C 21082W   23134.15256944  .00018263  00000+0  15305-2 0  1347
2 49150  70.0025  12.8034 0003167 270.2682 268.4803 14.98313483    13
STARLINK-3102           
1 49151C 21082X   23134.14354167  .00014163  00000+0  11869-2 0  1349
2 49151  70.0005 332.8225 0003280 271.7884 130.7835 14.98316851    13
STARLINK-3081           
1 49152C 21082Y   23134.11923611  .00015042  00000+0  12604-2 0  1348
2 49152  70.0007 332.8766 0003165 270.6830 135.8097 14.98320100    15
STARLINK-3072           
1 49153C 21082Z   23134.13868056  .00014365  00000+0  12039-2 0  1341
2 49153  70.0004 332.8417 0003258 273.3351 148.0319 14.98315028    13
STARLINK-3068           
1 49154C 21082AA  23134.10743056  .00016947  00000+0  14202-2 0  1343
2 49154  70.0016 352.9094 0003260 269.0711 207.5304 14.98314079    16
STARLINK-3060           
1 49155C 21082AB  23134.13034722  .00014097  00000+0  11812-2 0  1348
2 49155  70.0008 332.8654 0003255 273.0957 125.8195 14.98319664    13
STARLINK-3085           
1 49156C 21082AC  23134.15187500  .00013461  00000+0  11280-2 0  1347
2 49156  70.0010 332.8018 0003307 269.5790 357.9335 14.98319100    13
STARLINK-3051           
1 49157C 21082AD  23134.15256944  .00016246  00000+0  13615-2 0  1345
2 49157  70.0015 352.7995 0003263 269.0060 113.5126 14.98312525    18
STARLINK-3083           
1 49158C 21082AE  23134.13798611  .00019893  00000+0  16988-2 0  1343
2 49158  70.0001 352.5187 0003181 271.0570 329.1688 14.97580798    19
STARLINK-3056           
1 49159C 21082AF  23134.14979167  .00017485  00000+0  14653-2 0  1344
2 49159  70.0024  12.8148 0003182 269.0996 277.1755 14.98313310    10
STARLINK-3095           
1 49160C 21082AG  23134.14284722  .00017835  00000+0  14946-2 0  1346
2 49160  70.0022  12.8151 0003245 274.5691 301.7633 14.98314437    17
STARLINK-3080           
1 49161C 21082AH  23134.14354167  .00017070  00000+0  14303-2 0  1346
2 49161  70.0016  12.8118 0003272 270.7658 286.8091 14.98318784    15
STARLINK-3082           
1 49162C 21082AJ  23134.15326389  .00018351  00000+0  15378-2 0  1349
